{"type":"FeatureCollection","source":"Geoscience Australia — Australian Geological Provinces, TectonicProvinces-ArcheanProterozoic (CC BY 4.0)","sourceUrl":"https://services.ga.gov.au/gis/rest/services/Australian_Geological_Provinces/MapServer/20","features":[{"type":"Feature","geometry":{"type":"Polygon","coordinates":[[[118.75,-19.59],[117.34,-19.79],[116.28,-20.45],[115.7,-22.15],[115.74,-22.75],[116.34,-23.43],[117.77,-24.05],[120.32,-23.75],[121.47,-22.62],[121.48,-21.73],[120.95,-20.6],[120.03,-19.81],[118.75,-19.59]]]},"properties":{"name":"Pilbara Craton","motionPlateId":801}},{"type":"Feature","geometry":{"type":"Polygon","coordinates":[[[135.81,-27.88],[135.33,-27.44],[135.55,-27.12],[135.14,-26.25],[133.67,-27],[133.24,-27.61],[131.35,-28.83],[130.98,-32.79],[131.92,-33.56],[131.98,-34.22],[132.43,-34.62],[133.83,-35.11],[134.38,-34.74],[135.04,-35.19],[135.77,-35.19],[135.94,-35.67],[135.94,-35.42],[137.96,-35.72],[138.8,-34.69],[138.17,-31.9],[138.32,-30.4],[137.07,-29.13],[137.23,-28.68],[136.85,-28.24],[135.81,-27.88]]]},"properties":{"name":"Gawler Craton","motionPlateId":801}},{"type":"Feature","geometry":{"type":"Polygon","coordinates":[[[120.01,-24.83],[118.62,-25.35],[117.52,-25.16],[116.4,-25.83],[116.62,-25.61],[116.14,-25.67],[116.95,-25.43],[116.01,-25.57],[115.49,-26.31],[115.44,-28.3],[116.06,-31.19],[115.84,-34.5],[116.29,-34.22],[118.74,-34.45],[121.33,-33.92],[121.53,-33.19],[122.18,-32.74],[122.38,-32.08],[124.66,-29.5],[124.53,-29.05],[126.85,-27.28],[125.24,-25.91],[120.01,-24.83]]]},"properties":{"name":"Yilgarn Craton","motionPlateId":801}}]}
